{"type": "FeatureCollection", "features": [ {"type": "Feature", "properties": {"norad_id": 30081, "name": "FENGYUN 1C DEB", "group": "fengyun-1c-debris", "lat": 44.657767518202334, "lon": 177.78186289865783, "alt_km": 950.4832280845976, "timestamp": "2025-12-18T17:50:15.230669+00:00", "meta": {"OBJECT_NAME": "FENGYUN 1C DEB", "OBJECT_ID": "1999-025QJ", "EPOCH": "2025-12-17T22:35:55.010688", "MEAN_MOTION": 13.9828631, "ECCENTRICITY": 0.00758031, "INCLINATION": 98.9231, "RA_OF_ASC_NODE": 348.0715, "ARG_OF_PERICENTER": 324.8457, "MEAN_ANOMALY": 96.5776, "EPHEMERIS_TYPE": 0, "CLASSIFICATION_TYPE": "U", "NORAD_CAT_ID": 30081, "ELEMENT_SET_NO": 999, "REV_AT_EPOCH": 96427, "BSTAR": 0.00049721125, "MEAN_MOTION_DOT": 6.83e-06, "MEAN_MOTION_DDOT": 0}, "tle": {"line1": "1 30081U 99025QJ  25351.94160892  .00000683  00000+0  49721-3 0  9994", "line2": "2 30081  98.9231 348.0715 0075803 324.8457  96.5776 13.98286310964279"}}, "geometry": {"type": "Point", "coordinates": [177.78186289865783, 44.657767518202334]}}, {"type": "Feature", "properties": {"norad_id": 30082, "name": "FENGYUN 1C DEB", "group": "fengyun-1c-debris", "lat": 22.262334153570823, "lon": -82.2004571521873, "alt_km": 546.1042349005884, "timestamp": "2025-12-18T17:50:15.230679+00:00", "meta": {"OBJECT_NAME": "FENGYUN 1C DEB", "OBJECT_ID": "1999-025QK", "EPOCH": "2025-12-18T06:38:38.652864", "MEAN_MOTION": 15.15351404, "ECCENTRICITY": 0.00700683, "INCLINATION": 98.8189, "RA_OF_ASC_NODE": 280.9027, "ARG_OF_PERICENTER": 147.7943, "MEAN_ANOMALY": 212.7594, "EPHEMERIS_TYPE": 0, "CLASSIFICATION_TYPE": "U", "NORAD_CAT_ID": 30082, "ELEMENT_SET_NO": 999, "REV_AT_EPOCH": 1377, "BSTAR": 0.0010258209, "MEAN_MOTION_DOT": 0.00020538, "MEAN_MOTION_DDOT": 0}, "tle": {"line1": "1 30082U 99025QK  25352.27683626  .00020538  00000+0  10258-2 0  9990", "line2": "2 30082  98.8189 280.9027 0070068 147.7943 212.7594 15.15351404 13779"}}, "geometry": {"type": "Point", "coordinates": [-82.2004571521873, 22.262334153570823]}}, {"type": "Feature", "properties": {"norad_id": 30086, "name": "FENGYUN 1C DEB", "group": "fengyun-1c-debris", "lat": 41.60715459642451, "lon": 18.29863351807493, "alt_km": 865.7404650098742, "timestamp": "2025-12-18T17:50:15.230689+00:00", "meta": {"OBJECT_NAME": "FENGYUN 1C DEB", "OBJECT_ID": "1999-025QP", "EPOCH": "2025-12-17T16:33:42.816960", "MEAN_MOTION": 14.03837075, "ECCENTRICITY": 0.0061864, "INCLINATION": 98.91, "RA_OF_ASC_NODE": 25.2746, "ARG_OF_PERICENTER": 120.9199, "MEAN_ANOMALY": 2.5737, "EPHEMERIS_TYPE": 0, "CLASSIFICATION_TYPE": "U", "NORAD_CAT_ID": 30086, "ELEMENT_SET_NO": 999, "REV_AT_EPOCH": 96765, "BSTAR": 0.00050765237, "MEAN_MOTION_DOT": 7.71e-06, "MEAN_MOTION_DDOT": 0}, "tle": {"line1": "1 30086U 99025QP  25351.69007890  .00000771  00000+0  50765-3 0  9997", "line2": "2 30086  98.9100  25.2746 0061864 120.9199   2.5737 14.03837075967653"}}, "geometry": {"type": "Point", "coordinates": [18.29863351807493, 41.60715459642451]}}, {"type": "Feature", "properties": {"norad_id": 30087, "name": "FENGYUN 1C DEB", "group": "fengyun-1c-debris", "lat": -79.22751290426288, "lon": 75.60352682291857, "alt_km": 943.6402656049295, "timestamp": "2025-12-18T17:50:15.230699+00:00", "meta": {"OBJECT_NAME": "FENGYUN 1C DEB", "OBJECT_ID": "1999-025QQ", "EPOCH": "2025-12-18T01:45:38.570112", "MEAN_MOTION": 14.35712869, "ECCENTRICITY": 0.02304069, "INCLINATION": 98.3797, "RA_OF_ASC_NODE": 24.1722, "ARG_OF_PERICENTER": 105.5139, "MEAN_ANOMALY": 310.713, "EPHEMERIS_TYPE": 0, "CLASSIFICATION_TYPE": "U", "NORAD_CAT_ID": 30087, "ELEMENT_SET_NO": 999, "REV_AT_EPOCH": 98772, "BSTAR": 0.0001970205, "MEAN_MOTION_DOT": 7.22e-06, "MEAN_MOTION_DDOT": 0}, "tle": {"line1": "1 30087U 99025QQ  25352.07336308  .00000722  00000+0  19702-3 0  9992", "line2": "2 30087  98.3797  24.1722 0230406 105.5139 310.7130 14.35712869987724"}}, "geometry": {"type": "Point", "coordinates": [75.60352682291857, -79.22751290426288]}}, {"type": "Feature", "properties": {"norad_id": 30088, "name": "FENGYUN 1C DEB", "group": "fengyun-1c-debris", "lat": 2.7161621196043875, "lon": 157.24212063193053, "alt_km": 684.9632394321725, "timestamp": "2025-12-18T17:50:15.230709+00:00", "meta": {"OBJECT_NAME": "FENGYUN 1C DEB", "OBJECT_ID": "1999-025QR", "EPOCH": "2025-12-18T05:23:19.473216", "MEAN_MOTION": 14.35924215, "ECCENTRICITY": 0.02008486, "INCLINATION": 98.3547, "RA_OF_ASC_NODE": 336.3396, "ARG_OF_PERICENTER": 230.9871, "MEAN_ANOMALY": 148.1679, "EPHEMERIS_TYPE": 0, "CLASSIFICATION_TYPE": "U", "NORAD_CAT_ID": 30088, "ELEMENT_SET_NO": 999, "REV_AT_EPOCH": 98751, "BSTAR": 0.00026157984, "MEAN_MOTION_DOT": 9.04e-06, "MEAN_MOTION_DDOT": 0}, "tle": {"line1": "1 30088U 99025QR  25352.22453094  .00000904  00000+0  26158-3 0  9997", "line2": "2 30088  98.3547 336.3396 0200848 230.9871 148.1679 14.35924215987514"}}, "geometry": {"type": "Point", "coordinates": [157.24212063193053, 2.7161621196043875]}}, {"type": "Feature", "properties": {"norad_id": 30089, "name": "FENGYUN 1C DEB", "group": "fengyun-1c-debris", "lat": 81.05199900838346, "lon": 173.66212416560774, "alt_km": 794.8646083805552, "timestamp": "2025-12-18T17:50:15.230720+00:00", "meta": {"OBJECT_NAME": "FENGYUN 1C DEB", "OBJECT_ID": "1999-025QS", "EPOCH": "2025-12-18T04:44:02.075136", "MEAN_MOTION": 14.30311716, "ECCENTRICITY": 0.00735186, "INCLINATION": 98.9035, "RA_OF_ASC_NODE": 257.718, "ARG_OF_PERICENTER": 193.9199, "MEAN_ANOMALY": 326.3098, "EPHEMERIS_TYPE": 0, "CLASSIFICATION_TYPE": "U", "NORAD_CAT_ID": 30089, "ELEMENT_SET_NO": 999, "REV_AT_EPOCH": 98557, "BSTAR": 0.0001760239, "MEAN_MOTION_DOT": 4.24e-06, "MEAN_MOTION_DDOT": 0}, "tle": {"line1": "1 30089U 99025QS  25352.19724624  .00000424  00000+0  17602-3 0  9995", "line2": "2 30089  98.9035 257.7180 0073518 193.9199 326.3098 14.30311716985573"}}, "geometry": {"type": "Point", "coordinates": [173.66212416560774, 81.05199900838346]}}, {"type": "Feature", "properties": {"norad_id": 30090, "name": "FENGYUN 1C DEB", "group": "fengyun-1c-debris", "lat": -42.874481430378545, "lon": 175.15961708306924, "alt_km": 832.5516667394868, "timestamp": "2025-12-18T17:50:15.230730+00:00", "meta": {"OBJECT_NAME": "FENGYUN 1C DEB", "OBJECT_ID": "1999-025QT", "EPOCH": "2025-12-17T18:35:31.906176", "MEAN_MOTION": 14.29038612, "ECCENTRICITY": 0.00581798, "INCLINATION": 99.409, "RA_OF_ASC_NODE": 165.2594, "ARG_OF_PERICENTER": 97.5076, "MEAN_ANOMALY": 279.4133, "EPHEMERIS_TYPE": 0, "CLASSIFICATION_TYPE": "U", "NORAD_CAT_ID": 30090, "ELEMENT_SET_NO": 999, "REV_AT_EPOCH": 98342, "BSTAR": 0.00027739131, "MEAN_MOTION_DOT": 6.65e-06, "MEAN_MOTION_DDOT": 0}, "tle": {"line1": "1 30090U 99025QT  25351.77467484  .00000665  00000+0  27739-3 0  9997", "line2": "2 30090  99.4090 165.2594 0058179  97.5076 279.4133 14.29038612983422"}}, "geometry": {"type": "Point", "coordinates": [175.15961708306924, -42.874481430378545]}}, {"type": "Feature", "properties": {"norad_id": 30092, "name": "FENGYUN 1C DEB", "group": "fengyun-1c-debris", "lat": 45.667471071450464, "lon": 1.4953586867291206, "alt_km": 766.0780074524555, "timestamp": "2025-12-18T17:50:15.230739+00:00", "meta": {"OBJECT_NAME": "FENGYUN 1C DEB", "OBJECT_ID": "1999-025QV", "EPOCH": "2025-12-18T07:46:30.253728", "MEAN_MOTION": 14.39158801, "ECCENTRICITY": 0.00826767, "INCLINATION": 98.9222, "RA_OF_ASC_NODE": 171.8061, "ARG_OF_PERICENTER": 233.807, "MEAN_ANOMALY": 249.6708, "EPHEMERIS_TYPE": 0, "CLASSIFICATION_TYPE": "U", "NORAD_CAT_ID": 30092, "ELEMENT_SET_NO": 999, "REV_AT_EPOCH": 98829, "BSTAR": 0.00046244998, "MEAN_MOTION_DOT": 1.441e-05, "MEAN_MOTION_DDOT": 0}, "tle": {"line1": "1 30092U 99025QV  25352.32396127  .00001441  00000+0  46245-3 0  9992", "line2": "2 30092  98.9222 171.8061 0082676 233.8070 249.6708 14.39158801988296"}}, "geometry": {"type": "Point", "coordinates": [1.4953586867291206, 45.667471071450464]}}, {"type": "Feature", "properties": {"norad_id": 30093, "name": "FENGYUN 1C DEB", "group": "fengyun-1c-debris", "lat": 80.62638508929399, "lon": 156.51688451164932, "alt_km": 768.6339578517427, "timestamp": "2025-12-18T17:50:15.230749+00:00", "meta": {"OBJECT_NAME": "FENGYUN 1C DEB", "OBJECT_ID": "1999-025QW", "EPOCH": "2025-12-18T06:19:46.613280", "MEAN_MOTION": 14.43723006, "ECCENTRICITY": 0.00698104, "INCLINATION": 98.8681, "RA_OF_ASC_NODE": 227.0654, "ARG_OF_PERICENTER": 321.1898, "MEAN_ANOMALY": 154.4278, "EPHEMERIS_TYPE": 0, "CLASSIFICATION_TYPE": "U", "NORAD_CAT_ID": 30093, "ELEMENT_SET_NO": 999, "REV_AT_EPOCH": 98883, "BSTAR": 0.00072830237, "MEAN_MOTION_DOT": 2.5e-05, "MEAN_MOTION_DDOT": 0}, "tle": {"line1": "1 30093U 99025QW  25352.26373395  .00002500  00000+0  72830-3 0  9994", "line2": "2 30093  98.8681 227.0654 0069810 321.1898 154.4278 14.43723006988836"}}, "geometry": {"type": "Point", "coordinates": [156.51688451164932, 80.62638508929399]}}, {"type": "Feature", "properties": {"norad_id": 30095, "name": "FENGYUN 1C DEB", "group": "fengyun-1c-debris", "lat": -46.02378070445403, "lon": -75.53131532178087, "alt_km": 513.7824434531476, "timestamp": "2025-12-18T17:50:15.230760+00:00", "meta": {"OBJECT_NAME": "FENGYUN 1C DEB", "OBJECT_ID": "1999-025QY", "EPOCH": "2025-12-17T17:44:23.163936", "MEAN_MOTION": 14.82166256, "ECCENTRICITY": 0.01647945, "INCLINATION": 99.2206, "RA_OF_ASC_NODE": 273.6205, "ARG_OF_PERICENTER": 316.7683, "MEAN_ANOMALY": 42.0687, "EPHEMERIS_TYPE": 0, "CLASSIFICATION_TYPE": "U", "NORAD_CAT_ID": 30095, "ELEMENT_SET_NO": 999, "REV_AT_EPOCH": 99409, "BSTAR": 0.0017367384, "MEAN_MOTION_DOT": 0.00017496, "MEAN_MOTION_DDOT": 0}, "tle": {"line1": "1 30095U 99025QY  25351.73915699  .00017496  00000+0  17367-2 0  9999", "line2": "2 30095  99.2206 273.6205 0164794 316.7683  42.0687 14.82166256994096"}}, "geometry": {"type": "Point", "coordinates": [-75.53131532178087, -46.02378070445403]}}]}